NORAD_CAT_ID,OBJECT_NAME,OBJECT_TYPE,EPOCH,MEAN_MOTION,ECCENTRICITY,INCLINATION,RA_OF_ASC_NODE,ARG_OF_PERICENTER,MEAN_ANOMALY,BSTAR,MEAN_MOTION_DOT,MEAN_MOTION_DDOT,TLE_LINE0,TLE_LINE1,TLE_LINE2,SEMIMAJOR_AXIS,PERIOD,APOGEE,PERIGEE,DECAYED
44767,STARLINK-1062,PAYLOAD,2023-02-28 22:11:42,15.06361284,0.000157,53.0524,146.0909,91.1378,268.9791,-0.0016351,-0.00024528,0.0,0 STARLINK-1062,1 44767U 19074BG  23059.92479517 -.00024528  00000-0 -16351-2 0  9993,2 44767  53.0524 146.0909 0001570  91.1378 268.9791 15.06361284181682,6925.467,95.595,548.42,546.245,0.0
44767,STARLINK-1062,PAYLOAD,2023-03-01 10:56:02,15.0635718,0.0001284,53.0521,143.7078,107.5021,252.6108,0.0013928,0.00020501,0.0,0 STARLINK-1062,1 44767U 19074BG  23060.45558382  .00020501  00000-0  13928-2 0  9993,2 44767  53.0521 143.7078 0001284 107.5021 252.6108 15.06357180181939,6925.48,95.595,548.234,546.456,0.0
44767,STARLINK-1062,PAYLOAD,2023-03-01 17:18:12,15.06364977,0.0001308,53.0519,142.5165,101.6544,258.4591,0.0020034,0.00029657,0.0,0 STARLINK-1062,1 44767U 19074BG  23060.72097959  .00029657  00000-0  20034-2 0  9998,2 44767  53.0519 142.5165 0001308 101.6544 258.4591 15.06364977181800,6925.456,95.594,548.227,546.415,0.0
44767,STARLINK-1062,PAYLOAD,2023-03-02 15:35:45,15.06433303,0.0001259,53.0521,138.3471,94.9956,265.1177,0.0022979,0.00034143,0.0,0 STARLINK-1062,1 44767U 19074BG  23061.64983186  .00034143  00000-0  22979-2 0  9992,2 44767  53.0521 138.3471 0001259  94.9956 265.1177 15.06433303182112,6925.246,95.59,547.983,546.24,0.0
44767,STARLINK-1062,PAYLOAD,2023-03-03 07:31:08,15.06449951,0.0001431,53.0518,135.3684,92.3053,267.8099,0.0024546,0.00036519,0.0,0 STARLINK-1062,1 44767U 19074BG  23062.31328997  .00036519  00000-0  24546-2 0  9991,2 44767  53.0518 135.3684 0001431  92.3053 267.8099 15.06449951182212,6925.195,95.589,548.051,546.069,0.0
44767,STARLINK-1062,PAYLOAD,2023-03-03 10:42:12,15.06455258,0.0001269,53.0522,134.7723,104.9857,255.1272,0.0026334,0.00039221,0.0,0 STARLINK-1062,1 44767U 19074BG  23062.44597926  .00039221  00000-0  26334-2 0  9995,2 44767  53.0522 134.7723 0001269 104.9857 255.1272 15.06455258182068,6925.179,95.589,547.923,546.165,0.0
44767,STARLINK-1062,PAYLOAD,2023-03-03 13:53:17,15.06456994,0.0001255,53.0515,134.1766,92.4012,267.7121,0.0024291,0.00036142,0.0,0 STARLINK-1062,1 44767U 19074BG  23062.57866947  .00036142  00000-0  24291-2 0  9990,2 44767  53.0515 134.1766 0001255  92.4012 267.7121 15.06456994182251,6925.174,95.589,547.908,546.17,0.0
44767,STARLINK-1062,PAYLOAD,2023-03-03 21:50:58,15.06426809,0.0001389,53.0515,132.6877,93.5089,266.6059,0.0014602,0.00021551,0.0,0 STARLINK-1062,1 44767U 19074BG  23062.91040259  .00021551  00000-0  14602-2 0  9991,2 44767  53.0515 132.6877 0001389  93.5089 266.6059 15.06426809182307,6925.266,95.59,548.093,546.169,0.0
44767,STARLINK-1062,PAYLOAD,2023-03-04 10:35:17,15.06415554,0.0001297,53.0521,130.3052,100.5186,259.5949,0.0019998,0.00029644,0.0,0 STARLINK-1062,1 44767U 19074BG  23063.44117814  .00029644  00000-0  19998-2 0  9996,2 44767  53.0521 130.3052 0001297 100.5186 259.5949 15.06415554182381,6925.301,95.591,548.064,546.268,0.0
44767,STARLINK-1062,PAYLOAD,2023-03-04 21:44:04,15.06399375,0.0001788,53.0521,128.22,82.9904,277.1288,0.0012889,0.00018968,0.0,0 STARLINK-1062,1 44767U 19074BG  23063.90561215  .00018968  00000-0  12889-2 0  9994,2 44767  53.0521 128.2200 0001788  82.9904 277.1288 15.06399375182281,6925.35,95.592,548.454,545.977,0.0
44767,STARLINK-1062,PAYLOAD,2023-03-05 08:52:51,15.06397391,0.0001265,53.0516,126.1347,89.6831,270.4303,0.0018305,0.00027087,0.0,0 STARLINK-1062,1 44767U 19074BG  23064.37004283  .00027087  00000-0  18305-2 0  9994,2 44767  53.0516 126.1347 0001265  89.6831 270.4303 15.06397391182524,6925.357,95.592,548.098,546.345,0.0
44767,STARLINK-1062,PAYLOAD,2023-03-05 21:37:10,15.06418993,0.0001108,53.0525,123.752,81.7992,278.3122,0.0020831,0.00030899,0.0,0 STARLINK-1062,1 44767U 19074BG  23064.90081638  .00030899  00000-0  20831-2 0  9994,2 44767  53.0525 123.7520 0001108  81.7992 278.3122 15.06418993182435,6925.29,95.591,547.923,546.388,0.0
44767,STARLINK-1062,PAYLOAD,2023-03-06 08:45:56,15.06417097,0.0001721,53.0518,121.667,87.7609,272.3577,0.00094769,0.00013869,0.0,0 STARLINK-1062,1 44767U 19074BG  23065.36524235  .00013869  00000-0  94769-3 0  9990,2 44767  53.0518 121.6670 0001721  87.7609 272.3577 15.06417097182670,6925.296,95.591,548.353,545.969,0.0
44767,STARLINK-1062,PAYLOAD,2023-03-06 13:32:33,15.06430455,0.0001717,53.0532,120.7736,97.6289,262.4895,0.0012043,0.00017717,0.0,0 STARLINK-1062,1 44767U 19074BG  23065.56427730  .00017717  00000-0  12043-2 0  9994,2 44767  53.0532 120.7736 0001717  97.6289 262.4895 15.06430455182539,6925.255,95.59,548.309,545.931,0.0
44767,STARLINK-1062,PAYLOAD,2023-03-07 08:39:02,15.06405333,0.000157,53.0523,117.1986,112.1732,247.9424,0.0003342,4.701e-05,0.0,0 STARLINK-1062,1 44767U 19074BG  23066.36044132  .00004701  00000-0  33420-3 0  9996,2 44767  53.0523 117.1986 0001570 112.1732 247.9424 15.06405333182824,6925.332,95.592,548.284,546.11,0.0
44767,STARLINK-1062,PAYLOAD,2023-03-07 15:01:11,15.064189,0.0001533,53.0518,116.0053,113.8636,246.2514,0.0011454,0.00016829,0.0,0 STARLINK-1062,1 44767U 19074BG  23066.62582636  .00016829  00000-0  11454-2 0  9997,2 44767  53.0518 116.0053 0001533 113.8636 246.2514 15.06418900182861,6925.291,95.591,548.217,546.094,0.0
44767,STARLINK-1062,PAYLOAD,2023-03-08 03:45:31,15.06378321,0.0001112,53.0529,113.6245,117.0757,243.0345,0.0017268,0.00025518,0.0,0 STARLINK-1062,1 44767U 19074BG  23067.15661207  .00025518  00000-0  17268-2 0  9992,2 44767  53.0529 113.6245 0001112 117.0757 243.0345 15.06378321182940,6925.415,95.594,548.05,546.51,0.0
44767,STARLINK-1062,PAYLOAD,2023-03-08 08:32:08,15.06400456,0.0001166,53.0517,112.7312,109.7032,250.4082,0.0021469,0.00031842,0.0,0 STARLINK-1062,1 44767U 19074BG  23067.35565137  .00031842  00000-0  21469-2 0  9994,2 44767  53.0517 112.7312 0001166 109.7032 250.4082 15.06400456182973,6925.347,95.592,548.02,546.405,0.0
44767,STARLINK-1062,PAYLOAD,2023-03-08 19:40:54,15.06444674,0.0001223,53.0518,110.6457,106.0375,254.0749,0.0031641,0.00047222,0.0,0 STARLINK-1062,1 44767U 19074BG  23067.82007226  .00047222  00000-0  31641-2 0  9998,2 44767  53.0518 110.6457 0001223 106.0375 254.0749 15.06444674182874,6925.212,95.589,547.924,546.23,0.0
44767,STARLINK-1062,PAYLOAD,2023-03-09 11:36:15,15.06487295,0.000128,53.0514,107.6668,107.0713,253.0416,0.0026558,0.00039593,0.0,0 STARLINK-1062,1 44767U 19074BG  23068.48351257  .00039593  00000-0  26558-2 0  9990,2 44767  53.0514 107.6668 0001280 107.0713 253.0416 15.06487295183147,6925.081,95.587,547.832,546.06,0.0
44767,STARLINK-1062,PAYLOAD,2023-03-09 19:33:57,15.06422363,0.000189,53.0515,106.1776,73.9845,286.1352,-7.962e-05,-1.468e-05,0.0,0 STARLINK-1062,1 44767U 19074BG  23068.81525204 -.00001468  00000-0 -79620-4 0  9994,2 44767  53.0515 106.1776 0001890  73.9845 286.1352 15.06422363183024,6925.28,95.591,548.454,545.836,0.0
44767,STARLINK-1062,PAYLOAD,2023-03-10 09:53:51,15.06352734,0.0001493,53.0511,103.4974,78.6213,281.4943,0.0023703,0.00035156,0.0,0 STARLINK-1062,1 44767U 19074BG  23069.41239764  .00035156  00000-0  23703-2 0  9992,2 44767  53.0511 103.4974 0001493  78.6213 281.4943 15.06352734183286,6925.493,95.595,548.392,546.324,0.0
44767,STARLINK-1062,PAYLOAD,2023-03-10 19:27:06,15.06373694,0.0001656,53.0514,101.7095,80.8314,279.2862,0.002228,0.00033037,0.0,0 STARLINK-1062,1 44767U 19074BG  23069.81048908  .00033037  00000-0  22280-2 0  9999,2 44767  53.0514 101.7095 0001656  80.8314 279.2862 15.06373694183173,6925.429,95.594,548.441,546.147,0.0
44767,STARLINK-1062,PAYLOAD,2023-03-11 11:22:29,15.06423011,0.0001752,53.0514,98.7309,80.7635,279.3552,0.0024574,0.00036535,0.0,0 STARLINK-1062,1 44767U 19074BG  23070.47395646  .00036535  00000-0  24574-2 0  9991,2 44767  53.0514  98.7309 0001752  80.7635 279.3552 15.06423011183444,6925.278,95.591,548.356,545.93,0.0
44767,STARLINK-1062,PAYLOAD,2023-03-11 12:58:02,15.06424131,0.0001756,53.0512,98.4329,80.8604,279.2584,0.002154,0.0003197,0.0,0 STARLINK-1062,1 44767U 19074BG  23070.54030223  .00031970  00000-0  21540-2 0  9994,2 44767  53.0512  98.4329 0001756  80.8604 279.2584 15.06424131183282,6925.275,95.591,548.356,545.924,0.0
44767,STARLINK-1062,PAYLOAD,2023-03-12 12:51:09,15.06390415,0.0001738,53.0521,93.9653,93.7309,266.3879,0.0018511,0.00027391,0.0,0 STARLINK-1062,1 44767U 19074BG  23071.53552385  .00027391  00000-0  18511-2 0  9998,2 44767  53.0521  93.9653 0001738  93.7309 266.3879 15.06390415183604,6925.378,95.593,548.447,546.039,0.0
44767,STARLINK-1062,PAYLOAD,2023-03-13 12:44:13,15.06442256,0.0001864,53.0519,89.4979,97.0753,263.0448,0.0015119,0.00022336,0.0,0 STARLINK-1062,1 44767U 19074BG  23072.53071196  .00022336  00000-0  15119-2 0  9990,2 44767  53.0519  89.4979 0001864  97.0753 263.0448 15.06442256183586,6925.219,95.589,548.375,545.793,0.0
44767,STARLINK-1062,PAYLOAD,2023-03-14 04:39:38,15.06370461,0.0002015,53.0546,86.5191,91.6773,268.4447,0.00053535,7.695e-05,0.0,0 STARLINK-1062,1 44767U 19074BG  23073.19419412  .00007695  00000-0  53535-3 0  9996,2 44767  53.0546  86.5191 0002015  91.6773 268.4447 15.06370461183857,6925.439,95.594,548.7,545.909,0.0
44767,STARLINK-1062,PAYLOAD,2023-03-14 07:50:43,15.06375225,0.0002066,53.0544,85.9229,98.9878,261.1345,-0.00011018,-1.921e-05,0.0,0 STARLINK-1062,1 44767U 19074BG  23073.32688763 -.00001921  00000-0 -11018-3 0  9996,2 44767  53.0544  85.9229 0002066  98.9878 261.1345 15.06375225183706,6925.424,95.594,548.72,545.859,0.0
44767,STARLINK-1062,PAYLOAD,2023-03-14 17:23:57,15.06391846,0.0002017,53.0551,84.1365,94.9163,265.2057,0.00029764,4.153e-05,0.0,0 STARLINK-1062,1 44767U 19074BG  23073.72496891  .00004153  00000-0  29764-3 0  9994,2 44767  53.0551  84.1365 0002017  94.9163 265.2057 15.06391846183932,6925.374,95.593,548.635,545.842,0.0
